ONEWEB-0658             
1 55819U 23029Z   26170.19111964  .00000041  00000+0  69868-4 0  9997
2 55819  87.9181 304.5507 0001758 112.3380 247.7939 13.19724422159187
ONEWEB-0660             
1 55820U 23029AA  26170.25795026  .00000137  00000+0  33620-3 0  9995
2 55820  87.8976 289.2852 0001556  98.8806 261.2500 13.14503477159678
ONEWEB-0661             
1 55821U 23029AB  26170.29284662 -.00000083  00000+0 -25758-3 0  9994
2 55821  87.8958 289.3230 0001641  96.1154 264.0163 13.14503028159669
ONEWEB-0662             
1 55822U 23029AC  26170.25161552  .00000255  00000+0  65246-3 0  9998
2 55822  87.8955 289.3373 0001597 101.2196 258.9114 13.14503124159709
ONEWEB-0663             
1 55823U 23029AD  26170.20764761 -.00001764  00000+0 -43653-2 0  9990
2 55823  87.9201 274.0986 0001278 120.1637 239.9623 13.20856175161411
ONEWEB-0664             
1 55824U 23029AE  26170.23637503  .00000115  00000+0  25022-3 0  9995
2 55824  87.9185 274.0742 0001752  87.7237 272.4097 13.20770931161416
ONEWEB-0665             
1 55825U 23029AF  26170.28967383 -.00000167  00000+0 -48471-3 0  9995
2 55825  87.8959 289.3042 0001595 103.7524 256.3783 13.14503460159683
ONEWEB-0666             
1 55826U 23029AG  26170.22963980  .00000087  00000+0  18118-3 0  9993
2 55826  87.9186 274.0648 0002785 107.7673 252.3764 13.20771615161427
ONEWEB-0667             
1 55827U 23029AH  26170.22459383  .00000096  00000+0  20384-3 0  9999
2 55827  87.9202 274.0245 0001807  99.1597 260.9741 13.20771952161416
ONEWEB-0669             
1 55828U 23029AJ  26170.21953854  .00000060  00000+0  11477-3 0  9995
2 55828  87.9193 274.0362 0002198  86.7928 273.3457 13.20772083161418
ONEWEB-0670             
1 55829U 23029AK  26170.26747443 -.00000030  00000+0 -11628-3 0  9993
2 55829  87.8957 289.3260 0001623  90.8599 269.2717 13.14502953159706
ONEWEB-0671             
1 55830U 23029AL  26169.65565212  .00000053  00000+0  98972-4 0  9999
2 55830  87.9172 304.6830 0001709  98.0253 262.1074 13.19724641159099
ONEWEB-0672             
1 55831U 23029AM  26169.98721076 -.00000019  00000+0 -78011-4 0  9994
2 55831  87.9195 274.0761 0002259  98.4932 261.6457 13.20772607161388
ONEWEB-0673             
1 55832U 23029AN  26170.08764375  .00000065  00000+0  13085-3 0  9995
2 55832  87.9179 304.5887 0001735  97.3374 262.7956 13.19727356159152
ONEWEB-0674             
1 55833U 23029AP  26170.31186751  .00000191  00000+0  47997-3 0  9997
2 55833  87.8952 289.2940 0001681  89.4842 270.6480 13.14504039159697
ONEWEB-0675             
1 55834U 23029AQ  26170.10266645  .00000112  00000+0  24678-3 0  9990
2 55834  87.9172 304.5954 0002142 103.9603 256.1768 13.19724789159171
