[{"OBJECT_NAME":"ONEWEB-0658","OBJECT_ID":"2023-029Z","EPOCH":"2026-06-19T04:35:12.736896","MEAN_MOTION":13.19724422,"ECCENTRICITY":0.0001758,"INCLINATION":87.9181,"RA_OF_ASC_NODE":304.5507,"ARG_OF_PERICENTER":112.338,"MEAN_ANOMALY":247.7939,"EPHEMERIS_TYPE":0,"CLASSIFICATION_TYPE":"U","NORAD_CAT_ID":55819,"ELEMENT_SET_NO":999,"REV_AT_EPOCH":15918,"BSTAR":6.9868e-05,"MEAN_MOTION_DOT":4.1e-07,"MEAN_MOTION_DDOT":0.0},{"OBJECT_NAME":"ONEWEB-0660","OBJECT_ID":"2023-029AA","EPOCH":"2026-06-19T06:11:26.902464","MEAN_MOTION":13.14503477,"ECCENTRICITY":0.0001556,"INCLINATION":87.8976,"RA_OF_ASC_NODE":289.2852,"ARG_OF_PERICENTER":98.8806,"MEAN_ANOMALY":261.25,"EPHEMERIS_TYPE":0,"CLASSIFICATION_TYPE":"U","NORAD_CAT_ID":55820,"ELEMENT_SET_NO":999,"REV_AT_EPOCH":15967,"BSTAR":0.0003362,"MEAN_MOTION_DOT":1.37e-06,"MEAN_MOTION_DDOT":0.0},{"OBJECT_NAME":"ONEWEB-0661","OBJECT_ID":"2023-029AB","EPOCH":"2026-06-19T07:01:41.947968","MEAN_MOTION":13.14503028,"ECCENTRICITY":0.0001641,"INCLINATION":87.8958,"RA_OF_ASC_NODE":289.323,"ARG_OF_PERICENTER":96.1154,"MEAN_ANOMALY":264.0163,"EPHEMERIS_TYPE":0,"CLASSIFICATION_TYPE":"U","NORAD_CAT_ID":55821,"ELEMENT_SET_NO":999,"REV_AT_EPOCH":15966,"BSTAR":-0.00025758,"MEAN_MOTION_DOT":-8.3e-07,"MEAN_MOTION_DDOT":0.0},{"OBJECT_NAME":"ONEWEB-0662","OBJECT_ID":"2023-029AC","EPOCH":"2026-06-19T06:02:19.580928","MEAN_MOTION":13.14503124,"ECCENTRICITY":0.0001597,"INCLINATION":87.8955,"RA_OF_ASC_NODE":289.3373,"ARG_OF_PERICENTER":101.2196,"MEAN_ANOMALY":258.9114,"EPHEMERIS_TYPE":0,"CLASSIFICATION_TYPE":"U","NORAD_CAT_ID":55822,"ELEMENT_SET_NO":999,"REV_AT_EPOCH":15970,"BSTAR":0.0006524600000000001,"MEAN_MOTION_DOT":2.55e-06,"MEAN_MOTION_DDOT":0.0},{"OBJECT_NAME":"ONEWEB-0663","OBJECT_ID":"2023-029AD","EPOCH":"2026-06-19T04:59:00.753504","MEAN_MOTION":13.20856175,"ECCENTRICITY":0.0001278,"INCLINATION":87.9201,"RA_OF_ASC_NODE":274.0986,"ARG_OF_PERICENTER":120.1637,"MEAN_ANOMALY":239.9623,"EPHEMERIS_TYPE":0,"CLASSIFICATION_TYPE":"U","NORAD_CAT_ID":55823,"ELEMENT_SET_NO":999,"REV_AT_EPOCH":16141,"BSTAR":-0.0043653,"MEAN_MOTION_DOT":-1.764e-05,"MEAN_MOTION_DDOT":0.0},{"OBJECT_NAME":"ONEWEB-0664","OBJECT_ID":"2023-029AE","EPOCH":"2026-06-19T05:40:22.802592","MEAN_MOTION":13.20770931,"ECCENTRICITY":0.0001752,"INCLINATION":87.9185,"RA_OF_ASC_NODE":274.0742,"ARG_OF_PERICENTER":87.7237,"MEAN_ANOMALY":272.4097,"EPHEMERIS_TYPE":0,"CLASSIFICATION_TYPE":"U","NORAD_CAT_ID":55824,"ELEMENT_SET_NO":999,"REV_AT_EPOCH":16141,"BSTAR":0.00025022,"MEAN_MOTION_DOT":1.15e-06,"MEAN_MOTION_DDOT":0.0},{"OBJECT_NAME":"ONEWEB-0665","OBJECT_ID":"2023-029AF","EPOCH":"2026-06-19T06:57:07.818912","MEAN_MOTION":13.1450346,"ECCENTRICITY":0.0001595,"INCLINATION":87.8959,"RA_OF_ASC_NODE":289.3042,"ARG_OF_PERICENTER":103.7524,"MEAN_ANOMALY":256.3783,"EPHEMERIS_TYPE":0,"CLASSIFICATION_TYPE":"U","NORAD_CAT_ID":55825,"ELEMENT_SET_NO":999,"REV_AT_EPOCH":15968,"BSTAR":-0.00048470999999999996,"MEAN_MOTION_DOT":-1.67e-06,"MEAN_MOTION_DDOT":0.0},{"OBJECT_NAME":"ONEWEB-0666","OBJECT_ID":"2023-029AG","EPOCH":"2026-06-19T05:30:40.878720","MEAN_MOTION":13.20771615,"ECCENTRICITY":0.0002785,"INCLINATION":87.9186,"RA_OF_ASC_NODE":274.0648,"ARG_OF_PERICENTER":107.7673,"MEAN_ANOMALY":252.3764,"EPHEMERIS_TYPE":0,"CLASSIFICATION_TYPE":"U","NORAD_CAT_ID":55826,"ELEMENT_SET_NO":999,"REV_AT_EPOCH":16142,"BSTAR":0.00018118000000000002,"MEAN_MOTION_DOT":8.7e-07,"MEAN_MOTION_DDOT":0.0},{"OBJECT_NAME":"ONEWEB-0667","OBJECT_ID":"2023-029AH","EPOCH":"2026-06-19T05:23:24.906912","MEAN_MOTION":13.20771952,"ECCENTRICITY":0.0001807,"INCLINATION":87.9202,"RA_OF_ASC_NODE":274.0245,"ARG_OF_PERICENTER":99.1597,"MEAN_ANOMALY":260.9741,"EPHEMERIS_TYPE":0,"CLASSIFICATION_TYPE":"U","NORAD_CAT_ID":55827,"ELEMENT_SET_NO":999,"REV_AT_EPOCH":16141,"BSTAR":0.00020384,"MEAN_MOTION_DOT":9.6e-07,"MEAN_MOTION_DDOT":0.0},{"OBJECT_NAME":"ONEWEB-0669","OBJECT_ID":"2023-029AJ","EPOCH":"2026-06-19T05:16:08.129856","MEAN_MOTION":13.20772083,"ECCENTRICITY":0.0002198,"INCLINATION":87.9193,"RA_OF_ASC_NODE":274.0362,"ARG_OF_PERICENTER":86.7928,"MEAN_ANOMALY":273.3457,"EPHEMERIS_TYPE":0,"CLASSIFICATION_TYPE":"U","NORAD_CAT_ID":55828,"ELEMENT_SET_NO":999,"REV_AT_EPOCH":16141,"BSTAR":0.00011477,"MEAN_MOTION_DOT":6e-07,"MEAN_MOTION_DDOT":0.0},{"OBJECT_NAME":"ONEWEB-0670","OBJECT_ID":"2023-029AK","EPOCH":"2026-06-19T06:25:09.790752","MEAN_MOTION":13.14502953,"ECCENTRICITY":0.0001623,"INCLINATION":87.8957,"RA_OF_ASC_NODE":289.326,"ARG_OF_PERICENTER":90.8599,"MEAN_ANOMALY":269.2717,"EPHEMERIS_TYPE":0,"CLASSIFICATION_TYPE":"U","NORAD_CAT_ID":55829,"ELEMENT_SET_NO":999,"REV_AT_EPOCH":15970,"BSTAR":-0.00011627999999999999,"MEAN_MOTION_DOT":-3e-07,"MEAN_MOTION_DDOT":0.0},{"OBJECT_NAME":"ONEWEB-0671","OBJECT_ID":"2023-029AL","EPOCH":"2026-06-18T15:44:08.343168","MEAN_MOTION":13.19724641,"ECCENTRICITY":0.0001709,"INCLINATION":87.9172,"RA_OF_ASC_NODE":304.683,"ARG_OF_PERICENTER":98.0253,"MEAN_ANOMALY":262.1074,"EPHEMERIS_TYPE":0,"CLASSIFICATION_TYPE":"U","NORAD_CAT_ID":55830,"ELEMENT_SET_NO":999,"REV_AT_EPOCH":15909,"BSTAR":9.897200000000001e-05,"MEAN_MOTION_DOT":5.3e-07,"MEAN_MOTION_DDOT":0.0},{"OBJECT_NAME":"ONEWEB-0672","OBJECT_ID":"2023-029AM","EPOCH":"2026-06-18T23:41:35.009664","MEAN_MOTION":13.20772607,"ECCENTRICITY":0.0002259,"INCLINATION":87.9195,"RA_OF_ASC_NODE":274.0761,"ARG_OF_PERICENTER":98.4932,"MEAN_ANOMALY":261.6457,"EPHEMERIS_TYPE":0,"CLASSIFICATION_TYPE":"U","NORAD_CAT_ID":55831,"ELEMENT_SET_NO":999,"REV_AT_EPOCH":16138,"BSTAR":-7.8011e-05,"MEAN_MOTION_DOT":-1.9e-07,"MEAN_MOTION_DDOT":0.0},{"OBJECT_NAME":"ONEWEB-0673","OBJECT_ID":"2023-029AN","EPOCH":"2026-06-19T02:06:12.420000","MEAN_MOTION":13.19727356,"ECCENTRICITY":0.0001735,"INCLINATION":87.9179,"RA_OF_ASC_NODE":304.5887,"ARG_OF_PERICENTER":97.3374,"MEAN_ANOMALY":262.7956,"EPHEMERIS_TYPE":0,"CLASSIFICATION_TYPE":"U","NORAD_CAT_ID":55832,"ELEMENT_SET_NO":999,"REV_AT_EPOCH":15915,"BSTAR":0.00013085,"MEAN_MOTION_DOT":6.5e-07,"MEAN_MOTION_DDOT":0.0},{"OBJECT_NAME":"ONEWEB-0674","OBJECT_ID":"2023-029AP","EPOCH":"2026-06-19T07:29:05.352864","MEAN_MOTION":13.14504039,"ECCENTRICITY":0.0001681,"INCLINATION":87.8952,"RA_OF_ASC_NODE":289.294,"ARG_OF_PERICENTER":89.4842,"MEAN_ANOMALY":270.648,"EPHEMERIS_TYPE":0,"CLASSIFICATION_TYPE":"U","NORAD_CAT_ID":55833,"ELEMENT_SET_NO":999,"REV_AT_EPOCH":15969,"BSTAR":0.00047997000000000003,"MEAN_MOTION_DOT":1.91e-06,"MEAN_MOTION_DDOT":0.0},{"OBJECT_NAME":"ONEWEB-0675","OBJECT_ID":"2023-029AQ","EPOCH":"2026-06-19T02:27:50.381280","MEAN_MOTION":13.19724789,"ECCENTRICITY":0.0002142,"INCLINATION":87.9172,"RA_OF_ASC_NODE":304.5954,"ARG_OF_PERICENTER":103.9603,"MEAN_ANOMALY":256.1768,"EPHEMERIS_TYPE":0,"CLASSIFICATION_TYPE":"U","NORAD_CAT_ID":55834,"ELEMENT_SET_NO":999,"REV_AT_EPOCH":15917,"BSTAR":0.00024678,"MEAN_MOTION_DOT":1.12e-06,"MEAN_MOTION_DDOT":0.0}]